APRIZESAT 2             
1 28366U 04025A   23022.08401823  .00000385  00000+0  13515-3 0  9994
2 28366  98.1348 244.6902 0108214  37.8690 323.0047 14.36903938973213
SAUDICOMSAT 1           
1 28369U 04025D   23021.47450515  .00001076  00000+0  27052-3 0  9990
2 28369  98.4721 349.8571 0032435 226.1182 133.7334 14.52997637983565
SAUDICOMSAT 2           
1 28370U 04025E   23021.65834260  .00001028  00000+0  28426-3 0  9998
2 28370  98.5640 349.6082 0058580  61.4443 299.2628 14.47870860980228
APRIZESAT 1             
1 28372U 04025G   23021.47410311  .00000926  00000+0  24856-3 0  9996
2 28372  98.5251 349.4120 0045579 333.8468  26.0424 14.49953874981743
NANOSAT-1               
1 28493U 04049B   23022.00253129  .00002410  00000+0  37100-3 0  9994
2 28493  98.1176 128.0672 0003715 329.4572  30.6419 14.74399574972075
SAUDICOMSAT 7           
1 31119U 07012C   23022.12640879  .00001366  00000+0  27298-3 0  9997
2 31119  98.2122 331.2557 0060543 125.8551 234.8294 14.62366625840715
SAUDICOMSAT 6           
1 31121U 07012E   23021.66648363  .00001320  00000+0  28005-3 0  9991
2 31121  98.2510 326.0351 0074824 233.4340 125.9957 14.59135240838831
SAUDICOMSAT 5           
1 31124U 07012H   23021.59271951  .00001743  00000+0  33448-3 0  9997
2 31124  98.1818 332.1097 0052383  72.8579 287.8350 14.64115490841575
SAUDICOMSAT 3           
1 31125U 07012J   23022.40174155  .00002285  00000+0  42046-3 0  9993
2 31125  98.1478 334.1497 0043112  15.7063 344.5466 14.65993504842658
SAUDICOMSAT 4           
1 31127U 07012L   23021.39501832  .00001210  00000+0  24961-3 0  9991
2 31127  98.2343 328.9688 0067400 177.9847 182.1638 14.60870578839756
APRIZESAT 4             
1 35684U 09041D   23022.52213787  .00001635  00000+0  22009-3 0  9994
2 35684  98.2994  48.5773 0046760  10.4694 349.7479 14.79955846727513
APRIZESAT 3             
1 35686U 09041F   23022.22894694  .00003410  00000+0  35697-3 0  9995
2 35686  98.1001 118.7421 0071052 190.2015 169.7764 14.88468337731199
AISSAT 1                
1 36797U 10035C   23021.48504230  .00004588  00000+0  50813-3 0  9999
2 36797  98.2322 218.5825 0010664 174.4507 185.6829 14.87809829678989
S-NET D                 
1 43186U 18014G   23021.47266390  .00006480  00000+0  53930-3 0  9991
2 43186  97.6460 287.9750 0008528 284.1666  75.8609 14.98984790271565
S-NET B                 
1 43187U 18014H   23021.67342074  .00006723  00000+0  55933-3 0  9993
2 43187  97.6459 288.1123 0008485 283.5712  76.4566 14.98984858271595
S-NET A                 
1 43188U 18014J   23021.67370736  .00006758  00000+0  56214-3 0  9991
2 43188  97.6462 288.1894 0008453 283.6464  76.3818 14.98985340271591
S-NET C                 
1 43189U 18014K   23022.54274542  .00006315  00000+0  52558-3 0  9993
2 43189  97.6459 288.9504 0008242 280.6226  79.4069 14.98990112270272
SALSAT                  
1 46495U 20068K   23020.37026432  .00006526  00000+0  45307-3 0  9998
2 46495  97.7549 327.1702 0014040 261.2160  98.7476 15.05834602126813
